IRIDIUM 26              
1 24903U 97043A   25330.75647661  .00000511  00000+0  16492-3 0  9997
2 24903  86.3974  42.2793 0001949  95.6296 264.5123 14.37309270480094
IRIDIUM 22              
1 24907U 97043E   25330.75174310  .00000437  00000+0  14335-3 0  9998
2 24907  86.3979  45.9608 0002131  98.0510 262.0929 14.36104734480104
DUMMY MASS 1            
1 24925U 97048A   25330.65698106  .00000581  00000+0  61492-4 0  9993
2 24925  86.3352  60.1474 0004455 300.7917  59.2869 14.87161155529271
DUMMY MASS 2            
1 24926U 97048B   25330.78085748  .00000583  00000+0  62085-4 0  9991
2 24926  86.3352  61.7282 0005509 314.9493  45.1284 14.86911904529069
IRIDIUM 29              
1 24944U 97051A   25330.78550267  .00000576  00000+0  18905-3 0  9991
2 24944  86.3952  75.6415 0002246  96.1386 264.0067 14.36640976476618
IRIDIUM 33              
1 24946U 97051C   25330.73852204  .00000456  00000+0  15316-3 0  9994
2 24946  86.3868  74.9371 0005799 265.2059  94.8475 14.35019534476050
IRIDIUM 28              
1 24948U 97051E   25330.72609544  .00000532  00000+0  17106-3 0  9996
2 24948  86.3959  73.0887 0001545  96.9355 263.2019 14.37541506477191
IRIDIUM 36              
1 24967U 97056C   25330.73364340  .00000559  00000+0  17928-3 0  9996
2 24967  86.3947 104.7146 0001883  98.8122 261.3289 14.37761633475570
